sat20478
1 20478U 90013A   20046.58063428 -.00000148  00000-0 -74266-4 0  9996
2 20478  99.4145  39.8915 0005340 351.0855   9.0209 13.95496916449290
